CCSDS_OMM_VERS = 2.0
CREATION_DATE  = 
ORIGINATOR     = 

OBJECT_NAME    = CZ-2C R/B
OBJECT_ID      = 2022-058K
CENTER_NAME    = EARTH
REF_FRAME      = TEME
TIME_SYSTEM    = UTC
MEAN_ELEMENT_THEORY = SGP/SGP4

EPOCH          = 2025-11-27T16:50:42.390528
MEAN_MOTION    = 15.47417374
ECCENTRICITY   = .00472035
INCLINATION    = 50.1896
RA_OF_ASC_NODE = 120.1779
ARG_OF_PERICENTER = 136.3599
MEAN_ANOMALY   = 224.1117

EPHEMERIS_TYPE = 0
CLASSIFICATION_TYPE = U
NORAD_CAT_ID   = 52794
ELEMENT_SET_NO = 999
REV_AT_EPOCH   = 19430
BSTAR          = .56528527E-3
MEAN_MOTION_DOT = .30475E-3
MEAN_MOTION_DDOT = 0

CCSDS_OMM_VERS = 2.0
CREATION_DATE  = 
ORIGINATOR     = 

OBJECT_NAME    = CZ-2C R/B
OBJECT_ID      = 2022-132E
CENTER_NAME    = EARTH
REF_FRAME      = TEME
TIME_SYSTEM    = UTC
MEAN_ELEMENT_THEORY = SGP/SGP4

EPOCH          = 2025-11-27T17:35:28.591584
MEAN_MOTION    = 15.53506986
ECCENTRICITY   = .00240343
INCLINATION    = 97.2952
RA_OF_ASC_NODE = 327.6603
ARG_OF_PERICENTER = 106.0640
MEAN_ANOMALY   = 254.3262

EPHEMERIS_TYPE = 0
CLASSIFICATION_TYPE = U
NORAD_CAT_ID   = 54039
ELEMENT_SET_NO = 999
REV_AT_EPOCH   = 17450
BSTAR          = .45399156E-3
MEAN_MOTION_DOT = .29152E-3
MEAN_MOTION_DDOT = 0

CCSDS_OMM_VERS = 2.0
CREATION_DATE  = 
ORIGINATOR     = 

OBJECT_NAME    = GSLV R/B
OBJECT_ID      = 2022-138AN
CENTER_NAME    = EARTH
REF_FRAME      = TEME
TIME_SYSTEM    = UTC
MEAN_ELEMENT_THEORY = SGP/SGP4

EPOCH          = 2025-11-28T01:46:12.027648
MEAN_MOTION    = 14.96017322
ECCENTRICITY   = .0022518
INCLINATION    = 87.3843
RA_OF_ASC_NODE = 200.3842
ARG_OF_PERICENTER = 154.5293
MEAN_ANOMALY   = 205.7054

EPHEMERIS_TYPE = 0
CLASSIFICATION_TYPE = U
NORAD_CAT_ID   = 54149
ELEMENT_SET_NO = 999
REV_AT_EPOCH   = 16873
BSTAR          = .26039E-3
MEAN_MOTION_DOT = .2963E-4
MEAN_MOTION_DDOT = 0

CCSDS_OMM_VERS = 2.0
CREATION_DATE  = 
ORIGINATOR     = 

OBJECT_NAME    = XRISM
OBJECT_ID      = 2023-137A
CENTER_NAME    = EARTH
REF_FRAME      = TEME
TIME_SYSTEM    = UTC
MEAN_ELEMENT_THEORY = SGP/SGP4

EPOCH          = 2025-11-28T02:17:41.268192
MEAN_MOTION    = 15.10140036
ECCENTRICITY   = .0007581
INCLINATION    = 31.0010
RA_OF_ASC_NODE = 220.0810
ARG_OF_PERICENTER = 96.6575
MEAN_ANOMALY   = 263.4926

EPHEMERIS_TYPE = 0
CLASSIFICATION_TYPE = U
NORAD_CAT_ID   = 57800
ELEMENT_SET_NO = 999
REV_AT_EPOCH   = 12241
BSTAR          = .34416E-3
MEAN_MOTION_DOT = .5851E-4
MEAN_MOTION_DDOT = 0

CCSDS_OMM_VERS = 2.0
CREATION_DATE  = 
ORIGINATOR     = 

OBJECT_NAME    = ACS3
OBJECT_ID      = 2024-077B
CENTER_NAME    = EARTH
REF_FRAME      = TEME
TIME_SYSTEM    = UTC
MEAN_ELEMENT_THEORY = SGP/SGP4

EPOCH          = 2025-11-27T10:30:15.465600
MEAN_MOTION    = 13.84395279
ECCENTRICITY   = .00748553
INCLINATION    = 97.2878
RA_OF_ASC_NODE = 290.4584
ARG_OF_PERICENTER = 6.8658
MEAN_ANOMALY   = 353.3510

EPHEMERIS_TYPE = 0
CLASSIFICATION_TYPE = U
NORAD_CAT_ID   = 59588
ELEMENT_SET_NO = 999
REV_AT_EPOCH   = 8002
BSTAR          = .79378247E-2
MEAN_MOTION_DOT = .9057E-4
MEAN_MOTION_DDOT = 0

