CZ-2C R/B               
1 52794U 22058K   25331.70187952  .00030475  00000+0  56529-3 0  9995
2 52794  50.1896 120.1779 0047203 136.3599 224.1117 15.47417374194305
CZ-2C R/B               
1 54039U 22132E   25331.73296981  .00029152  00000+0  45399-3 0  9991
2 54039  97.2952 327.6603 0024034 106.0640 254.3262 15.53506986174503
GSLV R/B                
1 54149U 22138AN  25332.07375032  .00002963  00000+0  26039-3 0  9993
2 54149  87.3843 200.3842 0022518 154.5293 205.7054 14.96017322168737
XRISM                   
1 57800U 23137A   25332.09561653  .00005851  00000+0  34416-3 0  9995
2 57800  31.0010 220.0810 0007581  96.6575 263.4926 15.10140036122412
ACS3                    
1 59588U 24077B   25331.43767900  .00009057  00000+0  79378-2 0  9991
2 59588  97.2878 290.4584 0074855   6.8658 353.3510 13.84395279 80023
